APSTAR-7
1 38107U 12013A   26164.95681424  .00000000  00000+0  00000+0 0  9992
2 38107   0.0212 352.0420 0002521 100.4420 230.7219  1.00271645 51773
GSAT0102 (GALILEO-FM2)
1 37847U 11060B   26158.40220003 -.00000063  00000+0  00000+0 0  9998
2 37847  57.0009 342.0270 0003434  13.7700 354.5257  1.70476015 90968
